FLOCK 4G-13             
1 62621U 25009N   26068.70638971  .00053076  00000+0  16695-2 0  9995
2 62621  97.4019 151.0918 0003801 292.7207  67.3633 15.32770015 63700
STARLINK-32827          
1 63043U 25034Q   26068.83993514  .00019052  00000+0  65381-3 0  9996
2 63043  53.1572 270.6511 0000808  87.7595 272.3499 15.30196539 58922
