[{"OBJECT_NAME":"FLOCK 4G-13","OBJECT_ID":"2025-009N","EPOCH":"2026-03-09T16:57:12.071808","MEAN_MOTION":15.32770015,"ECCENTRICITY":0.0003801,"INCLINATION":97.4019,"RA_OF_ASC_NODE":151.0918,"ARG_OF_PERICENTER":292.7207,"MEAN_ANOMALY":67.3633,"EPHEMERIS_TYPE":0,"CLASSIFICATION_TYPE":"U","NORAD_CAT_ID":62621,"ELEMENT_SET_NO":999,"REV_AT_EPOCH":6370,"BSTAR":0.0016695386,"MEAN_MOTION_DOT":0.00053076,"MEAN_MOTION_DDOT":0},{"OBJECT_NAME":"STARLINK-32827","OBJECT_ID":"2025-034Q","EPOCH":"2026-03-09T20:09:30.396960","MEAN_MOTION":15.30196539,"ECCENTRICITY":8.076e-5,"INCLINATION":53.1572,"RA_OF_ASC_NODE":270.6511,"ARG_OF_PERICENTER":87.7595,"MEAN_ANOMALY":272.3499,"EPHEMERIS_TYPE":0,"CLASSIFICATION_TYPE":"U","NORAD_CAT_ID":63043,"ELEMENT_SET_NO":999,"REV_AT_EPOCH":5892,"BSTAR":0.00065380866,"MEAN_MOTION_DOT":0.00019052,"MEAN_MOTION_DDOT":0}]
